start=new Date('2022-04-13T00:00:00.000Z').valueOf();
sats=[{"ELEMENT_SET_NO":"999","NORAD_CAT_ID":"48385","REF_FRAME":"TEME","MEAN_MOTION_DOT":"-0.00000271","RA_OF_ASC_NODE":"276.9129","MEAN_ANOMALY":"304.5786","INCLINATION":"53.0558","BSTAR":"0.00000068955000","COUNTRY_CODE":"US","LAUNCH_DATE":"2021-05-04","OBJECT_NAME":"STARLINK-2598","TLE_LINE2":"2 48385  53.0558 276.9129 0001541  55.5349 304.5786 15.06397654 53337","RCS_SIZE":"LARGE","GP_ID":"201093908","ARG_OF_PERICENTER":"55.5349","MEAN_MOTION":"15.06397654","EPOCH":"2022-04-12T20:34:15.458304","MEAN_MOTION_DDOT":"0.0000000000000","MEAN_ELEMENT_THEORY":"SGP4","SITE":"AFETR","EPHEMERIS_TYPE":"0","SEMIMAJOR_AXIS":"6925.356","REV_AT_EPOCH":"5333","APOAPSIS":"548.288","CLASSIFICATION_TYPE":"U","TIME_SYSTEM":"UTC","ECCENTRICITY":"0.00015410","CENTER_NAME":"EARTH","OBJECT_ID":"2021-038AJ","TLE_LINE1":"1 48385U 21038AJ  22102.85712336 -.00000271  00000-0  68955-6 0  9994","DECAY_DATE":null,"PERIAPSIS":"546.154","FILE":"3398892","OBJECT_TYPE":"PAYLOAD","PERIOD":"95.592"},{"ELEMENT_SET_NO":"999","NORAD_CAT_ID":"48386","REF_FRAME":"TEME","MEAN_MOTION_DOT":"-0.00001551","RA_OF_ASC_NODE":"271.9866","MEAN_ANOMALY":"300.5571","INCLINATION":"53.0542","BSTAR":"-0.00008527700000","COUNTRY_CODE":"US","LAUNCH_DATE":"2021-05-04","OBJECT_NAME":"STARLINK-2606","TLE_LINE2":"2 48386  53.0542 271.9866 0001652  59.5581 300.5571 15.06393928 52178","RCS_SIZE":"LARGE","GP_ID":"201092656","ARG_OF_PERICENTER":"59.5581","MEAN_MOTION":"15.06393928","EPOCH":"2022-04-12T20:14:58.381728","MEAN_MOTION_DDOT":"0.0000000000000","EPHEMERIS_TYPE":"0","SITE":"AFETR","MEAN_ELEMENT_THEORY":"SGP4","SEMIMAJOR_AXIS":"6925.367","REV_AT_EPOCH":"5217","APOAPSIS":"548.376","CLASSIFICATION_TYPE":"U","TIME_SYSTEM":"UTC","ECCENTRICITY":"0.00016520","CENTER_NAME":"EARTH","PERIAPSIS":"546.088","TLE_LINE1":"1 48386U 21038AK  22102.84373127 -.00001551  00000-0 -85277-4 0  9992","DECAY_DATE":null,"OBJECT_ID":"2021-038AK","FILE":"3398892","OBJECT_TYPE":"PAYLOAD","PERIOD":"95.593"},{"TLE_LINE1":"1 48387U 21038AL  22102.74422121 -.00001000  00000-0 -48263-4 0  9994","PERIAPSIS":"546.047","DECAY_DATE":null,"OBJECT_ID":"2021-038AL","FILE":"3398892","PERIOD":"95.593","OBJECT_TYPE":"PAYLOAD","MEAN_MOTION_DDOT":"0.0000000000000","APOAPSIS":"548.460","REV_AT_EPOCH":"5216","SEMIMAJOR_AXIS":"6925.388","EPHEMERIS_TYPE":"0","SITE":"AFETR","MEAN_ELEMENT_THEORY":"SGP4","CLASSIFICATION_TYPE":"U","CENTER_NAME":"EARTH","ECCENTRICITY":"0.00017420","TIME_SYSTEM":"UTC","TLE_LINE2":"2 48387  53.0541 272.4323 0001742  54.8378 305.2774 15.06387088 52160","LAUNCH_DATE":"2021-05-04","OBJECT_NAME":"STARLINK-2600","GP_ID":"201092406","RCS_SIZE":"LARGE","MEAN_MOTION":"15.06387088","ARG_OF_PERICENTER":"54.8378","EPOCH":"2022-04-12T17:51:40.712544","REF_FRAME":"TEME","NORAD_CAT_ID":"48387","ELEMENT_SET_NO":"999","RA_OF_ASC_NODE":"272.4323","MEAN_MOTION_DOT":"-0.00001000","BSTAR":"-0.00004826300000","INCLINATION":"53.0541","MEAN_ANOMALY":"305.2774","COUNTRY_CODE":"US"},{"TLE_LINE1":"1 48388U 21038AM  22102.87047495  .00018070  00000-0  12285-2 0  9992","DECAY_DATE":null,"OBJECT_ID":"2021-038AM","PERIAPSIS":"546.112","PERIOD":"95.591","OBJECT_TYPE":"PAYLOAD","FILE":"3398892","APOAPSIS":"548.242","SEMIMAJOR_AXIS":"6925.312","REV_AT_EPOCH":"5218","SITE":"AFETR","MEAN_ELEMENT_THEORY":"SGP4","EPHEMERIS_TYPE":"0","MEAN_MOTION_DDOT":"0.0000000000000","CENTER_NAME":"EARTH","ECCENTRICITY":"0.00015380","TIME_SYSTEM":"UTC","CLASSIFICATION_TYPE":"U","GP_ID":"201093658","RCS_SIZE":"LARGE","TLE_LINE2":"2 48388  53.0544 271.8582 0001538  55.6533 304.4602 15.06412027 52184","OBJECT_NAME":"STARLINK-2594","LAUNCH_DATE":"2021-05-04","EPOCH":"2022-04-12T20:53:29.035680","MEAN_MOTION":"15.06412027","ARG_OF_PERICENTER":"55.6533","RA_OF_ASC_NODE":"271.8582","MEAN_MOTION_DOT":"0.00018070","REF_FRAME":"TEME","NORAD_CAT_ID":"48388","ELEMENT_SET_NO":"999","COUNTRY_CODE":"US","BSTAR":"0.00122850000000","INCLINATION":"53.0544","MEAN_ANOMALY":"304.4602"},{"REF_FRAME":"TEME","ELEMENT_SET_NO":"999","NORAD_CAT_ID":"48389","RA_OF_ASC_NODE":"266.9158","MEAN_MOTION_DOT":"-0.00000685","BSTAR":"-0.00002709100000","MEAN_ANOMALY":"299.1551","INCLINATION":"53.0565","COUNTRY_CODE":"US","TLE_LINE2":"2 48389  53.0565 266.9158 0001585  60.9597 299.1551 15.06403222 52240","LAUNCH_DATE":"2021-05-04","OBJECT_NAME":"STARLINK-1904","GP_ID":"201093408","RCS_SIZE":"LARGE","MEAN_MOTION":"15.06403222","ARG_OF_PERICENTER":"60.9597","EPOCH":"2022-04-12T20:35:34.116000","MEAN_MOTION_DDOT":"0.0000000000000","SEMIMAJOR_AXIS":"6925.339","REV_AT_EPOCH":"5224","APOAPSIS":"548.301","SITE":"AFETR","MEAN_ELEMENT_THEORY":"SGP4","EPHEMERIS_TYPE":"0","CLASSIFICATION_TYPE":"U","ECCENTRICITY":"0.00015850","CENTER_NAME":"EARTH","TIME_SYSTEM":"UTC","PERIAPSIS":"546.106","TLE_LINE1":"1 48389U 21038AN  22102.85803375 -.00000685  00000-0 -27091-4 0  9996","DECAY_DATE":null,"OBJECT_ID":"2021-038AN","FILE":"3398892","PERIOD":"95.592","OBJECT_TYPE":"PAYLOAD"},{"COUNTRY_CODE":"US","INCLINATION":"53.0528","MEAN_ANOMALY":"307.6172","BSTAR":"0.00044403000000","MEAN_MOTION_DOT":"0.00006341","RA_OF_ASC_NODE":"267.5341","NORAD_CAT_ID":"48390","ELEMENT_SET_NO":"999","REF_FRAME":"TEME","EPOCH":"2022-04-12T17:19:10.560864","ARG_OF_PERICENTER":"52.4975","MEAN_MOTION":"15.06413727","RCS_SIZE":"LARGE","GP_ID":"201092156","OBJECT_NAME":"STARLINK-2586","LAUNCH_DATE":"2021-05-04","TLE_LINE2":"2 48390  53.0528 267.5341 0001740  52.4975 307.6172 15.06413727 53449","TIME_SYSTEM":"UTC","CENTER_NAME":"EARTH","ECCENTRICITY":"0.00017400","CLASSIFICATION_TYPE":"U","EPHEMERIS_TYPE":"0","SITE":"AFETR","MEAN_ELEMENT_THEORY":"SGP4","APOAPSIS":"548.376","REV_AT_EPOCH":"5344","SEMIMAJOR_AXIS":"6925.306","MEAN_MOTION_DDOT":"0.0000000000000","OBJECT_TYPE":"PAYLOAD","PERIOD":"95.591","FILE":"3398892","DECAY_DATE":null,"TLE_LINE1":"1 48390U 21038AP  22102.72165001  .00006341  00000-0  44403-3 0  9999","PERIAPSIS":"545.966","OBJECT_ID":"2021-038AP"},{"MEAN_MOTION_DDOT":"0.0000000000000","EPHEMERIS_TYPE":"0","SITE":"AFETR","MEAN_ELEMENT_THEORY":"SGP4","APOAPSIS":"548.581","REV_AT_EPOCH":"5346","SEMIMAJOR_AXIS":"6925.381","CLASSIFICATION_TYPE":"U","TIME_SYSTEM":"UTC","CENTER_NAME":"EARTH","ECCENTRICITY":"0.00019280","TLE_LINE1":"1 48391U 21038AQ  22102.85067133 -.00001746  00000-0 -98368-4 0  9997","DECAY_DATE":null,"PERIAPSIS":"545.911","OBJECT_ID":"2021-038AQ","FILE":"3398892","OBJECT_TYPE":"PAYLOAD","PERIOD":"95.593","NORAD_CAT_ID":"48391","ELEMENT_SET_NO":"999","REF_FRAME":"TEME","MEAN_MOTION_DOT":"-0.00001746","RA_OF_ASC_NODE":"266.9545","INCLINATION":"53.0551","MEAN_ANOMALY":"310.9096","BSTAR":"-0.00009836800000","COUNTRY_CODE":"US","LAUNCH_DATE":"2021-05-04","OBJECT_NAME":"STARLINK-2607","TLE_LINE2":"2 48391  53.0551 266.9545 0001928  49.2060 310.9096 15.06389377 53469","RCS_SIZE":"LARGE","GP_ID":"201092907","ARG_OF_PERICENTER":"49.2060","MEAN_MOTION":"15.06389377","EPOCH":"2022-04-12T20:24:58.002912"},{"OBJECT_NAME":"STARLINK-2605","LAUNCH_DATE":"2021-05-04","TLE_LINE2":"2 48392  53.0565 267.2694 0001817  47.6625 312.4517 15.06382268 53456","RCS_SIZE":"LARGE","GP_ID":"201093158","ARG_OF_PERICENTER":"47.6625","MEAN_MOTION":"15.06382268","EPOCH":"2022-04-12T18:44:08.009664","ELEMENT_SET_NO":"999","NORAD_CAT_ID":"48392","REF_FRAME":"TEME","MEAN_MOTION_DOT":"-0.00002650","RA_OF_ASC_NODE":"267.2694","MEAN_ANOMALY":"312.4517","INCLINATION":"53.0565","BSTAR":"-0.00015916000000","COUNTRY_CODE":"US","TLE_LINE1":"1 48392U 21038AR  22102.78064826 -.00002650  00000-0 -15916-3 0  9998","DECAY_DATE":null,"PERIAPSIS":"546.010","OBJECT_ID":"2021-038AR","FILE":"3398892","OBJECT_TYPE":"PAYLOAD","PERIOD":"95.593","MEAN_MOTION_DDOT":"0.0000000000000","EPHEMERIS_TYPE":"0","SITE":"AFETR","MEAN_ELEMENT_THEORY":"SGP4","REV_AT_EPOCH":"5345","SEMIMAJOR_AXIS":"6925.403","APOAPSIS":"548.526","CLASSIFICATION_TYPE":"U","TIME_SYSTEM":"UTC","ECCENTRICITY":"0.00018170","CENTER_NAME":"EARTH"},{"PERIOD":"95.592","OBJECT_TYPE":"PAYLOAD","FILE":"3398892","TLE_LINE1":"1 48393U 21038AS  22102.84329466 -.00000531  00000-0 -16748-4 0  9991","OBJECT_ID":"2021-038AS","DECAY_DATE":null,"PERIAPSIS":"546.069","CENTER_NAME":"EARTH","ECCENTRICITY":"0.00016650","TIME_SYSTEM":"UTC","CLASSIFICATION_TYPE":"U","APOAPSIS":"548.375","REV_AT_EPOCH":"5346","SEMIMAJOR_AXIS":"6925.357","SITE":"AFETR","EPHEMERIS_TYPE":"0","MEAN_ELEMENT_THEORY":"SGP4","MEAN_MOTION_DDOT":"0.0000000000000","EPOCH":"2022-04-12T20:14:20.658624","MEAN_MOTION":"15.06397111","ARG_OF_PERICENTER":"54.5618","GP_ID":"201093909","RCS_SIZE":"LARGE","TLE_LINE2":"2 48393  53.0552 266.9932 0001665  54.5618 305.5527 15.06397111 53462","LAUNCH_DATE":"2021-05-04","OBJECT_NAME":"STARLINK-2602","COUNTRY_CODE":"US","BSTAR":"-0.00001674800000","INCLINATION":"53.0552","MEAN_ANOMALY":"305.5527","RA_OF_ASC_NODE":"266.9932","MEAN_MOTION_DOT":"-0.00000531","REF_FRAME":"TEME","NORAD_CAT_ID":"48393","ELEMENT_SET_NO":"999"},{"RA_OF_ASC_NODE":"266.9971","MEAN_MOTION_DOT":"-0.00001106","REF_FRAME":"TEME","ELEMENT_SET_NO":"999","NORAD_CAT_ID":"48394","COUNTRY_CODE":"US","BSTAR":"-0.00005535900000","MEAN_ANOMALY":"304.9695","INCLINATION":"53.0557","GP_ID":"201092657","RCS_SIZE":"LARGE","TLE_LINE2":"2 48394  53.0557 266.9971 0001605  55.1445 304.9695 15.06395864 53462","OBJECT_NAME":"STARLINK-2573","LAUNCH_DATE":"2021-05-04","EPOCH":"2022-04-12T20:09:02.522592","MEAN_MOTION":"15.06395864","ARG_OF_PERICENTER":"55.1445","REV_AT_EPOCH":"5346","SEMIMAJOR_AXIS":"6925.361","APOAPSIS":"548.338","SITE":"AFETR","EPHEMERIS_TYPE":"0","MEAN_ELEMENT_THEORY":"SGP4","MEAN_MOTION_DDOT":"0.0000000000000","ECCENTRICITY":"0.00016050","CENTER_NAME":"EARTH","TIME_SYSTEM":"UTC","CLASSIFICATION_TYPE":"U","DECAY_DATE":null,"TLE_LINE1":"1 48394U 21038AT  22102.83961253 -.00001106  00000-0 -55359-4 0  9997","PERIAPSIS":"546.115","OBJECT_ID":"2021-038AT","PERIOD":"95.592","OBJECT_TYPE":"PAYLOAD","FILE":"3398892"}];
